[{"OBJECT_NAME":"STARLINK-5467","OBJECT_ID":"2023-021AJ","EPOCH":"2026-03-09T15:44:49.737408","MEAN_MOTION":14.98299745,"ECCENTRICITY":0.00034055,"INCLINATION":70.0014,"RA_OF_ASC_NODE":164.3842,"ARG_OF_PERICENTER":269.2197,"MEAN_ANOMALY":90.8572,"EPHEMERIS_TYPE":0,"CLASSIFICATION_TYPE":"U","NORAD_CAT_ID":55660,"ELEMENT_SET_NO":999,"REV_AT_EPOCH":16928,"BSTAR":0.00024740261,"MEAN_MOTION_DOT":2.858e-5,"MEAN_MOTION_DDOT":0},{"OBJECT_NAME":"PEGASUS R\/B","OBJECT_ID":"2003-004B","EPOCH":"2026-03-09T09:44:27.528288","MEAN_MOTION":14.94290093,"ECCENTRICITY":0.00174311,"INCLINATION":40.0025,"RA_OF_ASC_NODE":325.3337,"ARG_OF_PERICENTER":130.6865,"MEAN_ANOMALY":229.5444,"EPHEMERIS_TYPE":0,"CLASSIFICATION_TYPE":"U","NORAD_CAT_ID":27652,"ELEMENT_SET_NO":999,"REV_AT_EPOCH":25440,"BSTAR":0.00025016623,"MEAN_MOTION_DOT":2.598e-5,"MEAN_MOTION_DDOT":0}]
